{
    "links": {
        "self": "http://www.neowsapp.com/rest/v1/neo/3739616?api_key=iIulBulltgU6a56xZRHN4H3l9WmuAYTsLGpBGhQ2"
    },
    "id": "3739616",
    "neo_reference_id": "3739616",
    "name": "(2016 AH66)",
    "designation": "2016 AH66",
    "nasa_jpl_url": "http://ssd.jpl.nasa.gov/sbdb.cgi?sstr=3739616",
    "absolute_magnitude_h": 25.9,
    "estimated_diameter": {
        "kilometers": {
            "estimated_diameter_min": 0.0175612318,
            "estimated_diameter_max": 0.0392681082
        },
        "meters": {
            "estimated_diameter_min": 17.561231848,
            "estimated_diameter_max": 39.2681081809
        },
        "miles": {
            "estimated_diameter_min": 0.0109120402,
            "estimated_diameter_max": 0.0244000636
        },
        "feet": {
            "estimated_diameter_min": 57.6155918963,
            "estimated_diameter_max": 128.8323800441
        }
    },
    "is_potentially_hazardous_asteroid": false,
    "close_approach_data": [
        {
            "close_approach_date": "2015-12-09",
            "close_approach_date_full": "2015-Dec-09 05:24",
            "epoch_date_close_approach": 1449638640000,
            "relative_velocity": {
                "kilometers_per_second": "2.8692153529",
                "kilometers_per_hour": "10329.1752703744",
                "miles_per_hour": "6418.1478228613"
            },
            "miss_distance": {
                "astronomical": "0.0904307921",
                "lunar": "35.1775781269",
                "kilometers": "13528253.880572827",
                "miles": "8406067.1668739326"
            },
            "orbiting_body": "Earth"
        }
    ],
    "orbital_data": {
        "orbit_id": "4",
        "orbit_determination_date": "2017-04-06 08:29:17",
        "first_observation_date": "2016-01-04",
        "last_observation_date": "2016-01-13",
        "data_arc_in_days": 9,
        "observations_used": 16,
        "orbit_uncertainty": "8",
        "minimum_orbit_intersection": ".085676",
        "jupiter_tisserand_invariant": "4.825",
        "epoch_osculation": "2457394.5",
        "eccentricity": ".2126745578110467",
        "semi_major_axis": "1.358803183198289",
        "inclination": "4.59662155182536",
        "ascending_node_longitude": "84.20175796131193",
        "orbital_period": "578.5398255076223",
        "perihelion_distance": "1.06982031705935",
        "perihelion_argument": "349.5076695903361",
        "aphelion_distance": "1.647786049337228",
        "perihelion_time": "2457361.184408749704",
        "mean_anomaly": "20.7308335940108",
        "mean_motion": ".6222562114615513",
        "equinox": "J2000",
        "orbit_class": {
            "orbit_class_type": "AMO",
            "orbit_class_description": "Near-Earth asteroid orbits similar to that of 1221 Amor",
            "orbit_class_range": "1.017 AU < q (perihelion) < 1.3 AU"
        }
    },
    "is_sentry_object": false
}